[{"OBJECT_NAME":"OBJECT A","OBJECT_ID":"2023-085A","EPOCH":"2026-03-09T21:42:39.504096","MEAN_MOTION":15.28003151,"ECCENTRICITY":0.00073195,"INCLINATION":97.4858,"RA_OF_ASC_NODE":178.2033,"ARG_OF_PERICENTER":32.2499,"MEAN_ANOMALY":327.9186,"EPHEMERIS_TYPE":0,"CLASSIFICATION_TYPE":"U","NORAD_CAT_ID":57004,"ELEMENT_SET_NO":999,"REV_AT_EPOCH":15139,"BSTAR":0.00063583858,"MEAN_MOTION_DOT":0.0001733,"MEAN_MOTION_DDOT":0},{"OBJECT_NAME":"STARLINK-35592","OBJECT_ID":"2025-237Y","EPOCH":"2026-03-09T07:17:47.937984","MEAN_MOTION":15.30187291,"ECCENTRICITY":0.00011472,"INCLINATION":53.1615,"RA_OF_ASC_NODE":41.2599,"ARG_OF_PERICENTER":87.5016,"MEAN_ANOMALY":272.6116,"EPHEMERIS_TYPE":0,"CLASSIFICATION_TYPE":"U","NORAD_CAT_ID":66136,"ELEMENT_SET_NO":999,"REV_AT_EPOCH":2255,"BSTAR":0.0002291663,"MEAN_MOTION_DOT":6.431e-5,"MEAN_MOTION_DDOT":0}]
